{"type": "FeatureCollection", "features": [ {"type": "Feature", "properties": {"norad_id": 64901, "name": "CO3D 4", "group": "resource", "lat": -57.35025758054429, "lon": -131.49019579500924, "alt_km": 511.620648339388, "timestamp": "2025-12-09T20:37:08.939752+00:00", "meta": {"OBJECT_NAME": "CO3D 4", "OBJECT_ID": "2025-156C", "EPOCH": "2025-12-09T14:50:09.307392", "MEAN_MOTION": 15.20216193, "ECCENTRICITY": 0.00010931, "INCLINATION": 97.4339, "RA_OF_ASC_NODE": 60.0302, "ARG_OF_PERICENTER": 213.5046, "MEAN_ANOMALY": 146.6121, "EPHEMERIS_TYPE": 0, "CLASSIFICATION_TYPE": "U", "NORAD_CAT_ID": 64901, "ELEMENT_SET_NO": 999, "REV_AT_EPOCH": 2073, "BSTAR": 0.00043741815, "MEAN_MOTION_DOT": 9.417e-05, "MEAN_MOTION_DDOT": 0}, "tle": {"line1": "1 64901U 25156C   25343.61816328  .00009417  00000+0  43742-3 0  9994", "line2": "2 64901  97.4339  60.0302 0001093 213.5046 146.6121 15.20216193 20735"}}, "geometry": {"type": "Point", "coordinates": [-131.49019579500924, -57.35025758054429]}}, {"type": "Feature", "properties": {"norad_id": 64902, "name": "CO3D 2", "group": "resource", "lat": 59.18487798461971, "lon": 47.53545397894679, "alt_km": 502.87165011148227, "timestamp": "2025-12-09T20:37:08.939762+00:00", "meta": {"OBJECT_NAME": "CO3D 2", "OBJECT_ID": "2025-156D", "EPOCH": "2025-12-09T12:27:23.938848", "MEAN_MOTION": 15.20057842, "ECCENTRICITY": 0.00090681, "INCLINATION": 97.4213, "RA_OF_ASC_NODE": 59.8234, "ARG_OF_PERICENTER": 303.4369, "MEAN_ANOMALY": 56.5998, "EPHEMERIS_TYPE": 0, "CLASSIFICATION_TYPE": "U", "NORAD_CAT_ID": 64902, "ELEMENT_SET_NO": 999, "REV_AT_EPOCH": 2071, "BSTAR": 0.00028838885, "MEAN_MOTION_DOT": 6.16e-05, "MEAN_MOTION_DDOT": 0}, "tle": {"line1": "1 64902U 25156D   25343.51902707  .00006160  00000+0  28839-3 0  9993", "line2": "2 64902  97.4213  59.8234 0009068 303.4369  56.5998 15.20057842 20717"}}, "geometry": {"type": "Point", "coordinates": [47.53545397894679, 59.18487798461971]}}, {"type": "Feature", "properties": {"norad_id": 64903, "name": "CO3D 1", "group": "resource", "lat": 59.47452300082033, "lon": 47.36311394573619, "alt_km": 497.3134846775356, "timestamp": "2025-12-09T20:37:08.939772+00:00", "meta": {"OBJECT_NAME": "CO3D 1", "OBJECT_ID": "2025-156E", "EPOCH": "2025-12-09T14:02:09.525408", "MEAN_MOTION": 15.20198094, "ECCENTRICITY": 0.00034546, "INCLINATION": 97.4366, "RA_OF_ASC_NODE": 59.891, "ARG_OF_PERICENTER": 38.3609, "MEAN_ANOMALY": 321.7871, "EPHEMERIS_TYPE": 0, "CLASSIFICATION_TYPE": "U", "NORAD_CAT_ID": 64903, "ELEMENT_SET_NO": 999, "REV_AT_EPOCH": 2072, "BSTAR": 0.00040934418, "MEAN_MOTION_DOT": 8.804e-05, "MEAN_MOTION_DDOT": 0}, "tle": {"line1": "1 64903U 25156E   25343.58483247  .00008804  00000+0  40934-3 0  9991", "line2": "2 64903  97.4366  59.8910 0003454  38.3609 321.7871 15.20198094 20725"}}, "geometry": {"type": "Point", "coordinates": [47.36311394573619, 59.47452300082033]}}, {"type": "Feature", "properties": {"norad_id": 66514, "name": "SENTINEL-6B", "group": "resource", "lat": 43.460425141316925, "lon": -36.50055015207917, "alt_km": 1332.5040406231765, "timestamp": "2025-12-09T20:37:08.939782+00:00", "meta": {"OBJECT_NAME": "SENTINEL-6B", "OBJECT_ID": "2025-264A", "EPOCH": "2025-12-08T23:22:28.384896", "MEAN_MOTION": 12.84031992, "ECCENTRICITY": 0.00210406, "INCLINATION": 66.0385, "RA_OF_ASC_NODE": 170.2707, "ARG_OF_PERICENTER": 268.23, "MEAN_ANOMALY": 91.6307, "EPHEMERIS_TYPE": 0, "CLASSIFICATION_TYPE": "U", "NORAD_CAT_ID": 66514, "ELEMENT_SET_NO": 999, "REV_AT_EPOCH": 280, "BSTAR": 0.000106025, "MEAN_MOTION_DOT": -3.6e-07, "MEAN_MOTION_DDOT": 0}, "tle": {"line1": "1 66514U 25264A   25342.97393964 -.00000036  00000+0  10602-3 0  9998", "line2": "2 66514  66.0385 170.2707 0021040 268.2300  91.6307 12.84031992  2809"}}, "geometry": {"type": "Point", "coordinates": [-36.50055015207917, 43.460425141316925]}}]}